CCSDS_OMM_VERS = 2.0
CREATION_DATE  = 
ORIGINATOR     = 

OBJECT_NAME    = SL-3 R/B
OBJECT_ID      = 1982-079B
CENTER_NAME    = EARTH
REF_FRAME      = TEME
TIME_SYSTEM    = UTC
MEAN_ELEMENT_THEORY = SGP/SGP4

EPOCH          = 2025-12-26T06:35:55.622976
MEAN_MOTION    = 15.23744847
ECCENTRICITY   = .00269065
INCLINATION    = 81.1470
RA_OF_ASC_NODE = 279.7057
ARG_OF_PERICENTER = 55.7125
MEAN_ANOMALY   = 304.6649

EPHEMERIS_TYPE = 0
CLASSIFICATION_TYPE = U
NORAD_CAT_ID   = 13403
ELEMENT_SET_NO = 999
REV_AT_EPOCH   = 36651
BSTAR          = .26763961E-3
MEAN_MOTION_DOT = .6524E-4
MEAN_MOTION_DDOT = 0

CCSDS_OMM_VERS = 2.0
CREATION_DATE  = 
ORIGINATOR     = 

OBJECT_NAME    = SL-14 R/B
OBJECT_ID      = 1982-092B
CENTER_NAME    = EARTH
REF_FRAME      = TEME
TIME_SYSTEM    = UTC
MEAN_ELEMENT_THEORY = SGP/SGP4

EPOCH          = 2025-12-26T02:03:27.216288
MEAN_MOTION    = 14.86567766
ECCENTRICITY   = .00202378
INCLINATION    = 82.5670
RA_OF_ASC_NODE = 210.2302
ARG_OF_PERICENTER = 181.2235
MEAN_ANOMALY   = 294.9910

EPHEMERIS_TYPE = 0
CLASSIFICATION_TYPE = U
NORAD_CAT_ID   = 13553
ELEMENT_SET_NO = 999
REV_AT_EPOCH   = 31799
BSTAR          = .48787104E-4
MEAN_MOTION_DOT = .458E-5
MEAN_MOTION_DDOT = 0

CCSDS_OMM_VERS = 2.0
CREATION_DATE  = 
ORIGINATOR     = 

OBJECT_NAME    = SL-3 R/B
OBJECT_ID      = 1983-010B
CENTER_NAME    = EARTH
REF_FRAME      = TEME
TIME_SYSTEM    = UTC
MEAN_ELEMENT_THEORY = SGP/SGP4

EPOCH          = 2025-12-26T06:07:23.337408
MEAN_MOTION    = 15.43826109
ECCENTRICITY   = .00165146
INCLINATION    = 81.1043
RA_OF_ASC_NODE = 92.1178
ARG_OF_PERICENTER = 303.0539
MEAN_ANOMALY   = 56.9118

EPHEMERIS_TYPE = 0
CLASSIFICATION_TYPE = U
NORAD_CAT_ID   = 13819
ELEMENT_SET_NO = 999
REV_AT_EPOCH   = 34660
BSTAR          = .32456401E-3
MEAN_MOTION_DOT = .14815E-3
MEAN_MOTION_DDOT = 0

CCSDS_OMM_VERS = 2.0
CREATION_DATE  = 
ORIGINATOR     = 

OBJECT_NAME    = SL-3 R/B
OBJECT_ID      = 1983-075B
CENTER_NAME    = EARTH
REF_FRAME      = TEME
TIME_SYSTEM    = UTC
MEAN_ELEMENT_THEORY = SGP/SGP4

EPOCH          = 2025-12-26T04:55:19.993728
MEAN_MOTION    = 15.36404664
ECCENTRICITY   = .00241125
INCLINATION    = 97.6114
RA_OF_ASC_NODE = 357.1429
ARG_OF_PERICENTER = 129.0159
MEAN_ANOMALY   = 231.3236

EPHEMERIS_TYPE = 0
CLASSIFICATION_TYPE = U
NORAD_CAT_ID   = 14208
ELEMENT_SET_NO = 999
REV_AT_EPOCH   = 31886
BSTAR          = .30468958E-3
MEAN_MOTION_DOT = .1084E-3
MEAN_MOTION_DDOT = 0

CCSDS_OMM_VERS = 2.0
CREATION_DATE  = 
ORIGINATOR     = 

OBJECT_NAME    = COSMOS 1536
OBJECT_ID      = 1984-013A
CENTER_NAME    = EARTH
REF_FRAME      = TEME
TIME_SYSTEM    = UTC
MEAN_ELEMENT_THEORY = SGP/SGP4

EPOCH          = 2025-12-25T21:13:44.620608
MEAN_MOTION    = 15.22666839
ECCENTRICITY   = .0014555
INCLINATION    = 82.5447
RA_OF_ASC_NODE = 181.1265
ARG_OF_PERICENTER = 177.3288
MEAN_ANOMALY   = 182.8029

EPHEMERIS_TYPE = 0
CLASSIFICATION_TYPE = U
NORAD_CAT_ID   = 14699
ELEMENT_SET_NO = 999
REV_AT_EPOCH   = 26138
BSTAR          = .24268E-3
MEAN_MOTION_DOT = .5697E-4
MEAN_MOTION_DDOT = 0

CCSDS_OMM_VERS = 2.0
CREATION_DATE  = 
ORIGINATOR     = 

OBJECT_NAME    = SL-14 R/B
OBJECT_ID      = 1984-027B
CENTER_NAME    = EARTH
REF_FRAME      = TEME
TIME_SYSTEM    = UTC
MEAN_ELEMENT_THEORY = SGP/SGP4

EPOCH          = 2025-12-25T21:20:28.264128
MEAN_MOTION    = 14.85887978
ECCENTRICITY   = .0016979
INCLINATION    = 82.5422
RA_OF_ASC_NODE = 314.2245
ARG_OF_PERICENTER = 213.7251
MEAN_ANOMALY   = 146.2887

EPHEMERIS_TYPE = 0
CLASSIFICATION_TYPE = U
NORAD_CAT_ID   = 14820
ELEMENT_SET_NO = 999
REV_AT_EPOCH   = 23667
BSTAR          = .60734E-4
MEAN_MOTION_DOT = .554E-5
MEAN_MOTION_DDOT = 0

CCSDS_OMM_VERS = 2.0
CREATION_DATE  = 
ORIGINATOR     = 

OBJECT_NAME    = SL-8 R/B
OBJECT_ID      = 1985-006B
CENTER_NAME    = EARTH
REF_FRAME      = TEME
TIME_SYSTEM    = UTC
MEAN_ELEMENT_THEORY = SGP/SGP4

EPOCH          = 2025-12-26T06:03:13.086720
MEAN_MOTION    = 14.37729202
ECCENTRICITY   = .00192621
INCLINATION    = 74.0460
RA_OF_ASC_NODE = 36.2737
ARG_OF_PERICENTER = 325.7808
MEAN_ANOMALY   = 105.1895

EPHEMERIS_TYPE = 0
CLASSIFICATION_TYPE = U
NORAD_CAT_ID   = 15483
ELEMENT_SET_NO = 999
REV_AT_EPOCH   = 14347
BSTAR          = .100986E-3
MEAN_MOTION_DOT = .278E-5
MEAN_MOTION_DDOT = 0

CCSDS_OMM_VERS = 2.0
CREATION_DATE  = 
ORIGINATOR     = 

OBJECT_NAME    = SL-12 R/B(2)
OBJECT_ID      = 1985-042D
CENTER_NAME    = EARTH
REF_FRAME      = TEME
TIME_SYSTEM    = UTC
MEAN_ELEMENT_THEORY = SGP/SGP4

EPOCH          = 2025-12-26T03:06:48.608928
MEAN_MOTION    = 14.21955769
ECCENTRICITY   = .0037257
INCLINATION    = 71.1069
RA_OF_ASC_NODE = 243.1329
ARG_OF_PERICENTER = 241.8317
MEAN_ANOMALY   = 270.6272

EPHEMERIS_TYPE = 0
CLASSIFICATION_TYPE = U
NORAD_CAT_ID   = 15772
ELEMENT_SET_NO = 999
REV_AT_EPOCH   = 10393
BSTAR          = .36369191E-4
MEAN_MOTION_DOT = .33E-6
MEAN_MOTION_DDOT = 0

CCSDS_OMM_VERS = 2.0
CREATION_DATE  = 
ORIGINATOR     = 

OBJECT_NAME    = SL-14 R/B
OBJECT_ID      = 1985-069B
CENTER_NAME    = EARTH
REF_FRAME      = TEME
TIME_SYSTEM    = UTC
MEAN_ELEMENT_THEORY = SGP/SGP4

EPOCH          = 2025-12-26T05:35:38.181120
MEAN_MOTION    = 14.86339539
ECCENTRICITY   = .00203034
INCLINATION    = 82.5273
RA_OF_ASC_NODE = 94.0184
ARG_OF_PERICENTER = 77.0764
MEAN_ANOMALY   = 283.2719

EPHEMERIS_TYPE = 0
CLASSIFICATION_TYPE = U
NORAD_CAT_ID   = 15945
ELEMENT_SET_NO = 999
REV_AT_EPOCH   = 16192
BSTAR          = .62209939E-4
MEAN_MOTION_DOT = .575E-5
MEAN_MOTION_DDOT = 0

CCSDS_OMM_VERS = 2.0
CREATION_DATE  = 
ORIGINATOR     = 

OBJECT_NAME    = SL-16 R/B
OBJECT_ID      = 1985-097B
CENTER_NAME    = EARTH
REF_FRAME      = TEME
TIME_SYSTEM    = UTC
MEAN_ELEMENT_THEORY = SGP/SGP4

EPOCH          = 2025-12-26T06:49:55.105248
MEAN_MOTION    = 14.16587122
ECCENTRICITY   = .00075619
INCLINATION    = 71.0035
RA_OF_ASC_NODE = 295.0873
ARG_OF_PERICENTER = 349.6987
MEAN_ANOMALY   = 163.2713

EPHEMERIS_TYPE = 0
CLASSIFICATION_TYPE = U
NORAD_CAT_ID   = 16182
ELEMENT_SET_NO = 999
REV_AT_EPOCH   = 7683
BSTAR          = -.74124189E-4
MEAN_MOTION_DOT = -.196E-5
MEAN_MOTION_DDOT = 0

CCSDS_OMM_VERS = 2.0
CREATION_DATE  = 
ORIGINATOR     = 

OBJECT_NAME    = SL-14 R/B
OBJECT_ID      = 1986-006B
CENTER_NAME    = EARTH
REF_FRAME      = TEME
TIME_SYSTEM    = UTC
MEAN_ELEMENT_THEORY = SGP/SGP4

EPOCH          = 2025-12-25T21:24:25.875360
MEAN_MOTION    = 14.86687506
ECCENTRICITY   = .0077332
INCLINATION    = 82.5272
RA_OF_ASC_NODE = 329.1753
ARG_OF_PERICENTER = 156.2031
MEAN_ANOMALY   = 204.2794

EPHEMERIS_TYPE = 0
CLASSIFICATION_TYPE = U
NORAD_CAT_ID   = 16496
ELEMENT_SET_NO = 999
REV_AT_EPOCH   = 13824
BSTAR          = .61963E-4
MEAN_MOTION_DOT = .609E-5
MEAN_MOTION_DDOT = 0

CCSDS_OMM_VERS = 2.0
CREATION_DATE  = 
ORIGINATOR     = 

OBJECT_NAME    = COSMOS 1743
OBJECT_ID      = 1986-034A
CENTER_NAME    = EARTH
REF_FRAME      = TEME
TIME_SYSTEM    = UTC
MEAN_ELEMENT_THEORY = SGP/SGP4

EPOCH          = 2025-12-25T20:49:14.951424
MEAN_MOTION    = 15.52897539
ECCENTRICITY   = .0005026
INCLINATION    = 82.5350
RA_OF_ASC_NODE = 150.9488
ARG_OF_PERICENTER = 198.6564
MEAN_ANOMALY   = 161.4505

EPHEMERIS_TYPE = 0
CLASSIFICATION_TYPE = U
NORAD_CAT_ID   = 16719
ELEMENT_SET_NO = 999
REV_AT_EPOCH   = 16877
BSTAR          = .50491E-3
MEAN_MOTION_DOT = .31481E-3
MEAN_MOTION_DDOT = 0

