SL-3 R/B                
1 13403U 82079B   25360.27494934  .00006524  00000+0  26764-3 0  9999
2 13403  81.1470 279.7057 0026906  55.7125 304.6649 15.23744847366517
SL-14 R/B               
1 13553U 82092B   25360.08573167  .00000458  00000+0  48787-4 0  9995
2 13553  82.5670 210.2302 0020237 181.2235 294.9910 14.86567766317992
SL-3 R/B                
1 13819U 83010B   25360.25513122  .00014815  00000+0  32456-3 0  9992
2 13819  81.1043  92.1178 0016514 303.0539  56.9118 15.43826109346607
SL-3 R/B                
1 14208U 83075B   25360.20509252  .00010840  00000+0  30469-3 0  9996
2 14208  97.6114 357.1429 0024112 129.0159 231.3236 15.36404664318868
COSMOS 1536             
1 14699U 84013A   25359.88454422  .00005697  00000+0  24268-3 0  9997
2 14699  82.5447 181.1265 0014555 177.3288 182.8029 15.22666839261389
SL-14 R/B               
1 14820U 84027B   25359.88921602  .00000554  00000+0  60734-4 0  9993
2 14820  82.5422 314.2245 0016979 213.7251 146.2887 14.85887978236679
SL-8 R/B                
1 15483U 85006B   25360.25223480  .00000278  00000+0  10099-3 0  9990
2 15483  74.0460  36.2737 0019262 325.7808 105.1895 14.37729202143470
SL-12 R/B(2)            
1 15772U 85042D   25360.12972927  .00000033  00000+0  36369-4 0  9992
2 15772  71.1069 243.1329 0037257 241.8317 270.6272 14.21955769103933
SL-14 R/B               
1 15945U 85069B   25360.23308080  .00000575  00000+0  62210-4 0  9993
2 15945  82.5273  94.0184 0020303  77.0764 283.2719 14.86339539161920
SL-16 R/B               
1 16182U 85097B   25360.28466557 -.00000196  00000+0 -74124-4 0  9995
2 16182  71.0035 295.0873 0007561 349.6987 163.2713 14.16587122 76839
SL-14 R/B               
1 16496U 86006B   25359.89196615  .00000609  00000+0  61963-4 0  9998
2 16496  82.5272 329.1753 0077332 156.2031 204.2794 14.86687506138241
COSMOS 1743             
1 16719U 86034A   25359.86753416  .00031481  00000+0  50491-3 0  9997
2 16719  82.5350 150.9488 0005026 198.6564 161.4505 15.52897539168771
